[{"OBJECT_NAME":"STARLINK-31384","OBJECT_ID":"2024-031U","EPOCH":"2026-03-09T21:51:15.063264","MEAN_MOTION":15.30184012,"ECCENTRICITY":0.00011279,"INCLINATION":53.1604,"RA_OF_ASC_NODE":295.906,"ARG_OF_PERICENTER":82.7914,"MEAN_ANOMALY":277.3215,"EPHEMERIS_TYPE":0,"CLASSIFICATION_TYPE":"U","NORAD_CAT_ID":58983,"ELEMENT_SET_NO":999,"REV_AT_EPOCH":11654,"BSTAR":3.8704947e-5,"MEAN_MOTION_DOT":7.87e-6,"MEAN_MOTION_DDOT":0},{"OBJECT_NAME":"EXO-0","OBJECT_ID":"2023-174DK","EPOCH":"2026-03-09T17:03:04.419648","MEAN_MOTION":15.32821991,"ECCENTRICITY":0.00098779,"INCLINATION":97.3864,"RA_OF_ASC_NODE":148.9039,"ARG_OF_PERICENTER":157.1125,"MEAN_ANOMALY":203.0559,"EPHEMERIS_TYPE":0,"CLASSIFICATION_TYPE":"U","NORAD_CAT_ID":59175,"ELEMENT_SET_NO":999,"REV_AT_EPOCH":12979,"BSTAR":0.00036716083,"MEAN_MOTION_DOT":0.00011582,"MEAN_MOTION_DDOT":0}]
